1 08820U 76039A   03176.88183847  .00000019  00000-0  10000-3 0  9339
2 08820 109.8049 184.5772 0044541 299.5287  60.0966  6.38664289377618
